STARLINK-6358           
1 57377U 23099BB  26068.51670688 -.00001296  00000+0 -80852-4 0  9991
2 57377  43.0015 236.6135 0001416 273.8320  86.2360 15.02538940146246
QPS-SAR-8 (AMATERU-IV)  
1 60542U 24149CC  26068.70418071  .00008268  00000+0  61811-3 0  9990
2 60542  97.6699 148.7511 0003873  93.1500 267.0168 15.03026697 85328
