[{"OBJECT_NAME":"STARLINK-6358","OBJECT_ID":"2023-099BB","EPOCH":"2026-03-09T12:24:03.474432","MEAN_MOTION":15.0253894,"ECCENTRICITY":0.00014165,"INCLINATION":43.0015,"RA_OF_ASC_NODE":236.6135,"ARG_OF_PERICENTER":273.832,"MEAN_ANOMALY":86.236,"EPHEMERIS_TYPE":0,"CLASSIFICATION_TYPE":"U","NORAD_CAT_ID":57377,"ELEMENT_SET_NO":999,"REV_AT_EPOCH":14624,"BSTAR":-8.0851931e-5,"MEAN_MOTION_DOT":-1.296e-5,"MEAN_MOTION_DDOT":0},{"OBJECT_NAME":"QPS-SAR-8 (AMATERU-IV)","OBJECT_ID":"2024-149CC","EPOCH":"2026-03-09T16:54:01.213344","MEAN_MOTION":15.03026697,"ECCENTRICITY":0.0003873,"INCLINATION":97.6699,"RA_OF_ASC_NODE":148.7511,"ARG_OF_PERICENTER":93.15,"MEAN_ANOMALY":267.0168,"EPHEMERIS_TYPE":0,"CLASSIFICATION_TYPE":"U","NORAD_CAT_ID":60542,"ELEMENT_SET_NO":999,"REV_AT_EPOCH":8532,"BSTAR":0.00061811246,"MEAN_MOTION_DOT":8.268e-5,"MEAN_MOTION_DDOT":0}]
